OBJECT_NAME,OBJECT_ID,EPOCH,MEAN_MOTION,ECCENTRICITY,INCLINATION,RA_OF_ASC_NODE,ARG_OF_PERICENTER,MEAN_ANOMALY,EPHEMERIS_TYPE,CLASSIFICATION_TYPE,NORAD_CAT_ID,ELEMENT_SET_NO,REV_AT_EPOCH,BSTAR,MEAN_MOTION_DOT,MEAN_MOTION_DDOT
INTELSAT 21 (IS-21),2012-045A,2026-06-15T19:37:45.175008,1.00270615,.00013015,0.0101,9.9691,96.2138,34.3521,0,U,38749,999,5051,0,-.284E-5,0
ASTRA 2F,2012-051A,2026-06-15T20:02:20.842080,1.00269106,.00014351,0.0661,258.0466,283.1470,51.6898,0,U,38778,999,4112,0,.151E-5,0
GSAT-10,2012-051B,2026-06-15T20:17:58.696800,1.00269957,.00077707,0.0840,262.9067,184.4234,204.2991,0,U,38779,999,5008,0,-.163E-5,0
INTELSAT 23 (IS-23),2012-057A,2026-06-15T19:39:07.542720,1.00274032,.00003523,0.0087,17.3111,65.1100,63.4693,0,U,38867,999,4994,0,-.283E-5,0
BEIDOU-2 G6,2012-059A,2026-06-15T20:18:13.673376,1.00272204,.0009592,4.4170,73.5329,324.3186,254.8650,0,U,38953,999,4989,0,-.178E-5,0
LUCH-5B,2012-061A,2026-06-15T23:14:56.884416,1.00272153,.00025217,10.4794,49.8909,151.7333,35.0817,0,U,38977,999,4959,0,-.144E-5,0
YAMAL 300K,2012-061B,2026-06-15T19:03:48.429792,1.00268724,.00013979,0.0157,290.4133,319.9846,122.5801,0,U,38978,999,4961,0,.72E-6,0
STAR ONE C3,2012-062A,2026-06-15T19:32:53.142144,1.00271116,.0002132,0.0134,299.5405,158.4062,24.3842,0,U,38991,999,4975,0,-.248E-5,0
EUTELSAT 21B,2012-062B,2026-06-15T20:34:38.920224,1.00274427,.00030913,0.0670,9.1770,74.9933,150.2325,0,U,38992,999,4981,0,.131E-5,0
ECHOSTAR 16,2012-065A,2026-06-15T11:03:29.520576,1.00270712,.0002176,0.0232,18.7871,66.8511,282.4865,0,U,39008,999,4962,0,0,0
ZHONGXING-12,2012-067A,2026-06-15T22:01:51.233376,1.00272113,.00027588,0.0367,87.7135,348.4169,246.0204,0,U,39017,999,4949,0,-.206E-5,0
EUTELSAT 70B,2012-069A,2026-06-15T20:14:23.673984,1.00271511,.00039593,0.0638,12.9030,64.2215,201.0808,0,U,39020,999,4949,0,-.42E-6,0
YAMAL 402,2012-070A,2026-06-15T16:44:37.423104,1.00270740,.00036098,1.2616,84.1775,0.0764,125.7752,0,U,39022,999,4938,0,.87E-6,0
SKYNET 5D,2012-075A,2026-06-16T00:01:31.620288,1.00269763,.00034433,0.0670,347.5657,105.7571,224.1106,0,U,39034,999,4914,0,.1E-5,0
MEXSAT 3,2012-075B,2026-06-15T22:30:57.589056,1.00268366,.00011607,0.0179,62.0957,9.5055,55.5497,0,U,39035,999,704,0,-.24E-6,0
TDRS 11,2013-004A,2026-06-15T19:04:33.358656,1.00268995,.00055018,3.5187,31.2384,19.9376,324.6325,0,U,39070,999,4667,0,.78E-6,0
AMAZONAS 3,2013-006A,2026-06-15T19:36:52.758720,1.00272783,.00018155,0.0397,215.9735,274.9937,6.3447,0,U,39078,999,4490,0,-.281E-5,0
AZERSPACE 1,2013-006B,2026-06-15T23:53:37.081248,1.00269381,.00011938,0.0173,5.3843,108.9575,194.3199,0,U,39079,999,4879,0,.134E-5,0
SBIRS GEO-2 (USA 241),2013-011A,2026-06-15T16:14:48.037632,1.00271302,.00021714,4.4864,52.5091,23.4674,21.8775,0,U,39120,999,4852,0,-.288E-5,0
EUTELSAT 117 WEST A,2013-012A,2026-06-15T15:55:42.367584,1.00270894,.0002618,0.0136,2.9621,81.0947,302.0074,0,U,39122,999,4841,0,-.11E-6,0
ANIK G1,2013-014A,2026-06-15T15:58:19.617312,1.00270642,.00014658,0.0174,11.4710,65.5839,319.1571,0,U,39127,999,4823,0,-.72E-6,0
ZHONGXING-11,2013-020A,2026-06-16T00:21:13.807296,1.00269591,.00019788,0.0542,63.4802,14.4173,289.6100,0,U,39157,999,4788,0,-.29E-5,0
EUTELSAT 7B,2013-022A,2026-06-15T22:34:52.982400,1.00272069,.00047004,0.0649,347.6111,48.1837,214.1526,0,U,39163,999,4793,0,.49E-6,0
WGS F5 (USA 243),2013-024A,2026-06-15T19:39:15.031008,1.00269850,.00003642,0.0169,329.1201,338.2064,199.0721,0,U,39168,999,4716,0,-.283E-5,0
SES-6,2013-026A,2026-06-15T19:42:44.696160,1.00269683,.00024706,0.0189,6.9361,93.6591,58.6812,0,U,39172,999,4771,0,-.26E-5,0
IRNSS-1A,2013-034A,2026-06-09T14:20:49.169184,1.00272948,.00174117,35.7049,63.9797,184.2474,279.8453,0,U,39199,999,4729,0,.7E-6,0
MUOS-2,2013-036A,2026-06-15T13:41:50.181216,1.00272914,.00509318,4.9921,45.5302,177.5483,58.1852,0,U,39206,999,4717,0,-.14E-6,0
ALPHASAT,2013-038A,2026-06-14T23:29:28.036608,1.00270020,.00016374,2.9985,1.3785,97.5348,181.5670,0,U,39215,999,4399,0,.137E-5,0
INSAT-3D,2013-038B,2026-06-15T20:31:12.429408,1.00269716,.00005499,1.9229,82.5552,308.7384,310.1572,0,U,39216,999,4706,0,-.339E-5,0
WGS F6 (USA 244),2013-041A,2026-06-15T15:50:27.870720,1.00272263,.00001235,0.0176,1.4906,300.5400,64.3351,0,U,39222,999,4604,0,.91E-6,0
ES'HAIL 1,2013-044A,2026-06-14T11:30:52.712064,1.00273168,.0002036,0.0540,20.6505,59.8985,20.4321,0,U,39233,999,4660,0,.151E-5,0
GSAT-7,2013-044B,2026-06-15T20:15:23.577696,1.00270312,.00031693,0.0808,94.7949,189.7704,357.3737,0,U,39234,999,4524,0,-.75E-6,0
