INTELSAT 21 (IS-21)     
1 38749U 12045A   26166.81788397 -.00000284  00000+0  00000+0 0  9998
2 38749   0.0101   9.9691 0001301  96.2138  34.3521  1.00270615 50514
ASTRA 2F                
1 38778U 12051A   26166.83496345  .00000151  00000+0  00000+0 0  9990
2 38778   0.0661 258.0466 0001435 283.1470  51.6898  1.00269106 41127
GSAT-10                 
1 38779U 12051B   26166.84581825 -.00000163  00000+0  00000+0 0  9994
2 38779   0.0840 262.9067 0007770 184.4234 204.2991  1.00269957 50086
INTELSAT 23 (IS-23)     
1 38867U 12057A   26166.81883730 -.00000283  00000+0  00000+0 0  9998
2 38867   0.0087  17.3111 0000352  65.1100  63.4693  1.00274032 49942
BEIDOU-2 G6             
1 38953U 12059A   26166.84599159 -.00000178  00000+0  00000+0 0  9991
2 38953   4.4170  73.5329 0009592 324.3186 254.8650  1.00272204 49895
LUCH-5B                 
1 38977U 12061A   26166.96871394 -.00000144  00000+0  00000+0 0  9990
2 38977  10.4794  49.8909 0002521 151.7333  35.0817  1.00272153 49595
YAMAL 300K              
1 38978U 12061B   26166.79431053  .00000072  00000+0  00000+0 0  9995
2 38978   0.0157 290.4133 0001397 319.9846 122.5801  1.00268724 49611
STAR ONE C3             
1 38991U 12062A   26166.81450396 -.00000248  00000+0  00000+0 0  9991
2 38991   0.0134 299.5405 0002132 158.4062  24.3842  1.00271116 49755
EUTELSAT 21B            
1 38992U 12062B   26166.85739491  .00000131  00000+0  00000+0 0  9992
2 38992   0.0670   9.1770 0003091  74.9933 150.2325  1.00274427 49815
ECHOSTAR 16             
1 39008U 12065A   26166.46075834  .00000000  00000+0  00000+0 0  9990
2 39008   0.0232  18.7871 0002176  66.8511 282.4865  1.00270712 49620
ZHONGXING-12            
1 39017U 12067A   26166.91795409 -.00000206  00000+0  00000+0 0  9998
2 39017   0.0367  87.7135 0002758 348.4169 246.0204  1.00272113 49497
EUTELSAT 70B            
1 39020U 12069A   26166.84332956 -.00000042  00000+0  00000+0 0  9998
2 39020   0.0638  12.9030 0003959  64.2215 201.0808  1.00271511 49497
YAMAL 402               
1 39022U 12070A   26166.69765536  .00000087  00000+0  00000+0 0  9997
2 39022   1.2616  84.1775 0003609   0.0764 125.7752  1.00270740 49385
SKYNET 5D               
1 39034U 12075A   26167.00106042  .00000100  00000+0  00000+0 0  9998
2 39034   0.0670 347.5657 0003443 105.7571 224.1106  1.00269763 49149
MEXSAT 3                
1 39035U 12075B   26166.93816654 -.00000024  00000+0  00000+0 0  9993
2 39035   0.0179  62.0957 0001160   9.5055  55.5497  1.00268366  7048
TDRS 11                 
1 39070U 13004A   26166.79483054  .00000078  00000+0  00000+0 0  9991
2 39070   3.5187  31.2384 0005501  19.9376 324.6325  1.00268995 46670
AMAZONAS 3              
1 39078U 13006A   26166.81727730 -.00000281  00000+0  00000+0 0  9993
2 39078   0.0397 215.9735 0001815 274.9937   6.3447  1.00272783 44907
AZERSPACE 1             
1 39079U 13006B   26166.99556807  .00000134  00000+0  00000+0 0  9994
2 39079   0.0173   5.3843 0001193 108.9575 194.3199  1.00269381 48797
SBIRS GEO-2 (USA 241)   
1 39120U 13011A   26166.67694488 -.00000288  00000+0  00000+0 0  9991
2 39120   4.4864  52.5091 0002171  23.4674  21.8775  1.00271302 48527
EUTELSAT 117 WEST A     
1 39122U 13012A   26166.66368481 -.00000011  00000+0  00000+0 0  9998
2 39122   0.0136   2.9621 0002618  81.0947 302.0074  1.00270894 48419
ANIK G1                 
1 39127U 13014A   26166.66550483 -.00000072  00000+0  00000+0 0  9997
2 39127   0.0174  11.4710 0001465  65.5839 319.1571  1.00270642 48238
ZHONGXING-11            
1 39157U 13020A   26167.01474314 -.00000290  00000+0  00000+0 0  9997
2 39157   0.0542  63.4802 0001978  14.4173 289.6100  1.00269591 47882
EUTELSAT 7B             
1 39163U 13022A   26166.94089100  .00000049  00000+0  00000+0 0  9993
2 39163   0.0649 347.6111 0004700  48.1837 214.1526  1.00272069 47939
WGS F5 (USA 243)        
1 39168U 13024A   26166.81892397 -.00000283  00000+0  00000+0 0  9997
2 39168   0.0169 329.1201 0000364 338.2064 199.0721  1.00269850 47160
SES-6                   
1 39172U 13026A   26166.82135065 -.00000260  00000+0  00000+0 0  9992
2 39172   0.0189   6.9361 0002470  93.6591  58.6812  1.00269683 47717
IRNSS-1A                
1 39199U 13034A   26160.59779131  .00000070  00000+0  00000+0 0  9994
2 39199  35.7049  63.9797 0017411 184.2474 279.8453  1.00272948 47299
MUOS-2                  
1 39206U 13036A   26166.57071969 -.00000014  00000+0  00000+0 0  9992
2 39206   4.9921  45.5302 0050931 177.5483  58.1852  1.00272914 47173
ALPHASAT                
1 39215U 13038A   26165.97879672  .00000137  00000+0  00000+0 0  9999
2 39215   2.9985   1.3785 0001637  97.5348 181.5670  1.00270020 43997
INSAT-3D                
1 39216U 13038B   26166.85500497 -.00000339  00000+0  00000+0 0  9999
2 39216   1.9229  82.5552 0000549 308.7384 310.1572  1.00269716 47062
WGS F6 (USA 244)        
1 39222U 13041A   26166.66004480  .00000091  00000+0  00000+0 0  9994
2 39222   0.0176   1.4906 0000123 300.5400  64.3351  1.00272263 46041
ES'HAIL 1               
1 39233U 13044A   26165.47977676  .00000151  00000+0  00000+0 0  9990
2 39233   0.0540  20.6505 0002036  59.8985  20.4321  1.00273168 46600
GSAT-7                  
1 39234U 13044B   26166.84402289 -.00000075  00000+0  00000+0 0  9992
2 39234   0.0808  94.7949 0003169 189.7704 357.3737  1.00270312 45242
